OBJECT_NAME,OBJECT_ID,EPOCH,MEAN_MOTION,ECCENTRICITY,INCLINATION,RA_OF_ASC_NODE,ARG_OF_PERICENTER,MEAN_ANOMALY,EPHEMERIS_TYPE,CLASSIFICATION_TYPE,NORAD_CAT_ID,ELEMENT_SET_NO,REV_AT_EPOCH,BSTAR,MEAN_MOTION_DOT,MEAN_MOTION_DDOT
STARLINK-5416,2022-177AM,2026-06-06T14:45:19.755936,15.27577031,.0001356,43.0035,339.1178,266.3871,93.6826,0,U,54855,999,19069,.10612E-4,.3E-6,0
STARLINK-5086,2022-177AN,2026-06-05T22:15:52.053984,15.27575993,.00018025,43.0025,343.4139,263.6393,96.4254,0,U,54856,999,19058,.42214701E-4,.899E-5,0
STARLINK-5078,2022-177AP,2026-06-06T15:05:40.967232,15.27577505,.000184,43.0054,339.2251,273.2922,86.7719,0,U,54857,999,19069,.13553E-4,.111E-5,0
STARLINK-5407,2022-177AQ,2026-06-06T14:54:34.683264,15.27572622,.0000768,43.0029,339.1667,277.2063,82.8701,0,U,54858,999,19069,-.24269E-4,-.929E-5,0
STARLINK-5409,2022-177AR,2026-06-06T18:34:20.118144,15.27588189,.0001698,43.0044,338.5861,272.3188,87.7469,0,U,54859,999,19071,.62734E-4,.1465E-4,0
STARLINK-5406,2022-177AS,2026-06-06T18:45:27.385344,15.27575374,.0001515,43.0014,338.6387,264.8563,95.2116,0,U,54860,999,19071,.29978E-4,.563E-5,0
STARLINK-5400,2022-177AT,2026-06-06T19:22:14.646144,15.27581617,.0000838,43.0036,337.9849,273.5789,86.4966,0,U,54861,999,19072,.27648E-4,.499E-5,0
STARLINK-5403,2022-177AU,2026-06-06T05:44:26.808288,15.27578731,.00022528,43.0070,341.4749,268.7247,91.3347,0,U,54862,999,19063,.19518722E-4,.275E-5,0
STARLINK-5405,2022-177AV,2026-06-06T18:25:05.784384,15.27578129,.0001771,43.0051,338.5397,271.3696,88.6952,0,U,54863,999,19071,.13523E-4,.11E-5,0
STARLINK-5359,2022-177AW,2026-06-06T18:56:31.005600,15.27598477,.0001674,43.0027,338.6922,273.3832,86.6828,0,U,54864,999,19071,.15535E-3,.4017E-4,0
STARLINK-5411,2022-177AX,2026-06-06T05:46:18.464736,15.27552742,.00015928,43.0022,341.4694,284.7800,75.2875,0,U,54865,999,19063,.10849541E-3,.2722E-4,0
STARLINK-5398,2022-177AY,2026-06-06T19:13:00.066144,15.27573436,.0001257,43.0043,337.9278,266.6932,93.3776,0,U,54866,999,19072,.41668E-4,.884E-5,0
STARLINK-5396,2022-177AZ,2026-06-06T18:51:00.453024,15.27581923,.0001125,43.0006,338.6680,271.2208,88.8515,0,U,54867,999,19071,.40268E-4,.846E-5,0
STARLINK-5379,2022-177BA,2026-06-06T19:24:05.404896,15.27580989,.0001293,43.0031,337.9807,248.4682,111.6032,0,U,54868,999,19072,.44254E-4,.956E-5,0
STARLINK-5402,2022-177BB,2026-06-06T19:11:21.849216,15.27576758,.0000976,43.0036,338.7740,268.5659,91.5081,0,U,54869,999,19071,.31953E-4,.617E-5,0
STARLINK-5401,2022-177BC,2026-06-06T19:18:32.718240,15.27577841,.0001202,43.0039,337.9574,268.9706,91.1008,0,U,54870,999,19072,.13892E-4,.12E-5,0
STARLINK-5397,2022-177BD,2026-06-06T19:05:48.433344,15.27580797,.0002288,43.0009,338.7342,271.4714,88.5876,0,U,54871,999,19071,.43196E-4,.926E-5,0
STARLINK-5091,2022-177BF,2026-06-06T18:36:11.896416,15.27577342,.0001725,43.0024,338.5828,262.9722,97.0934,0,U,54873,999,19071,.39394E-4,.822E-5,0
SHIYAN-10 02 (SY-10 02),2022-178A,2026-05-26T05:11:51.872640,2.00661821,.69404802,64.0055,323.3895,267.8824,18.1494,0,U,54878,999,1611,0,.724E-5,0
EROS C3,2022-179A,2026-06-06T20:13:45.683904,15.10812873,.000861,139.3391,305.8381,258.2109,101.7732,0,U,54880,999,19076,.24932E-3,.4472E-4,0
STAR VIBE,2023-001A,2026-06-06T20:31:55.968096,15.42332129,.0006832,97.3170,222.2796,141.5854,218.5881,0,U,55009,999,19063,.424E-3,.18222E-3,0
MENUT,2023-001B,2026-06-06T19:49:59.129184,15.58954961,.000609,97.3140,225.4415,146.8210,213.3430,0,U,55010,999,19078,.10103E-2,.79025E-3,0
BRO-8,2023-001C,2026-06-06T20:09:00.410112,15.48419921,.0006878,97.3211,222.8793,151.2880,208.8750,0,U,55011,999,19060,.71823E-3,.38156E-3,0
CONNECTA T1.2,2023-001D,2026-06-06T10:57:03.979584,15.49873498,.0006713,97.3291,227.9620,135.2108,224.9686,0,U,55012,999,19088,.67557106E-3,.37754E-3,0
BIRKELAND,2023-001G,2026-06-06T19:33:35.519616,15.39894690,.0008103,97.3344,225.7598,134.9433,225.2472,0,U,55015,999,19075,.27231E-3,.10757E-3,0
LYNK TOWER 4,2023-001AB,2026-06-06T03:35:11.495040,15.33204170,.00092516,97.3199,216.1773,150.1710,210.0062,0,U,55034,999,19013,.30403515E-3,.9691E-4,0
SKYKRAFT-1,2023-001AJ,2026-06-06T20:03:18.484704,15.65804606,.0004718,97.3179,234.6788,114.8890,245.2861,0,U,55041,999,19143,.57348E-3,.58269E-3,0
CONTINUUM-1,2023-001AN,2026-06-06T20:13:13.817856,15.30003546,.0011019,97.3339,221.0664,99.1034,261.1454,0,U,55045,999,19067,.46404E-3,.13435E-3,0
LYNK TOWER 3,2023-001AP,2026-06-06T09:41:42.161280,15.36081738,.00088275,97.3202,217.7066,149.0587,211.1179,0,U,55046,999,19025,.44389709E-3,.15552E-3,0
NUSAT-33 (ALBANIA-2),2023-001AQ,2026-06-06T20:40:04.067616,15.27617915,.0008196,97.3071,218.9764,87.1178,273.1000,0,U,55047,999,19073,.44892E-3,.12067E-3,0
