STARLINK-5416           
1 54855U 22177AM  26157.61481199  .00000030  00000+0  10612-4 0  9992
2 54855  43.0035 339.1178 0001356 266.3871  93.6826 15.27577031190691
STARLINK-5086           
1 54856U 22177AN  26156.92768581  .00000899  00000+0  42215-4 0  9996
2 54856  43.0025 343.4139 0001802 263.6393  96.4254 15.27575993190580
STARLINK-5078           
1 54857U 22177AP  26157.62894638  .00000111  00000+0  13553-4 0  9998
2 54857  43.0054 339.2251 0001840 273.2922  86.7719 15.27577505190699
STARLINK-5407           
1 54858U 22177AQ  26157.62123476 -.00000929  00000+0 -24269-4 0  9999
2 54858  43.0029 339.1667 0000768 277.2063  82.8701 15.27572622190693
STARLINK-5409           
1 54859U 22177AR  26157.77384396  .00001465  00000+0  62734-4 0  9999
2 54859  43.0044 338.5861 0001698 272.3188  87.7469 15.27588189190710
STARLINK-5406           
1 54860U 22177AS  26157.78156696  .00000563  00000+0  29978-4 0  9993
2 54860  43.0014 338.6387 0001515 264.8563  95.2116 15.27575374190719
STARLINK-5400           
1 54861U 22177AT  26157.80711396  .00000499  00000+0  27648-4 0  9991
2 54861  43.0036 337.9849 0000838 273.5789  86.4966 15.27581617190726
STARLINK-5403           
1 54862U 22177AU  26157.23919917  .00000275  00000+0  19519-4 0  9998
2 54862  43.0070 341.4749 0002252 268.7247  91.3347 15.27578731190632
STARLINK-5405           
1 54863U 22177AV  26157.76742806  .00000110  00000+0  13523-4 0  9995
2 54863  43.0051 338.5397 0001771 271.3696  88.6952 15.27578129190712
STARLINK-5359           
1 54864U 22177AW  26157.78924775  .00004017  00000+0  15535-3 0  9999
2 54864  43.0027 338.6922 0001674 273.3832  86.6828 15.27598477190715
STARLINK-5411           
1 54865U 22177AX  26157.24049149  .00002722  00000+0  10850-3 0  9990
2 54865  43.0022 341.4694 0001592 284.7800  75.2875 15.27552742190631
STARLINK-5398           
1 54866U 22177AY  26157.80069521  .00000884  00000+0  41668-4 0  9998
2 54866  43.0043 337.9278 0001257 266.6932  93.3776 15.27573436190720
STARLINK-5396           
1 54867U 22177AZ  26157.78542191  .00000846  00000+0  40268-4 0  9998
2 54867  43.0006 338.6680 0001125 271.2208  88.8515 15.27581923190716
STARLINK-5379           
1 54868U 22177BA  26157.80839589  .00000956  00000+0  44254-4 0  9993
2 54868  43.0031 337.9807 0001293 248.4682 111.6032 15.27580989190727
STARLINK-5402           
1 54869U 22177BB  26157.79955844  .00000617  00000+0  31953-4 0  9991
2 54869  43.0036 338.7740 0000976 268.5659  91.5081 15.27576758190710
STARLINK-5401           
1 54870U 22177BC  26157.80454535  .00000120  00000+0  13892-4 0  9997
2 54870  43.0039 337.9574 0001202 268.9706  91.1008 15.27577841190721
STARLINK-5397           
1 54871U 22177BD  26157.79569946  .00000926  00000+0  43196-4 0  9993
2 54871  43.0009 338.7342 0002288 271.4714  88.5876 15.27580797190710
STARLINK-5091           
1 54873U 22177BF  26157.77513769  .00000822  00000+0  39394-4 0  9995
2 54873  43.0024 338.5828 0001725 262.9722  97.0934 15.27577342190717
SHIYAN-10 02 (SY-10 02) 
1 54878U 22178A   26146.21657260  .00000724  00000+0  00000+0 0  9991
2 54878  64.0055 323.3895 6940480 267.8824  18.1494  2.00661821 16117
EROS C3                 
1 54880U 22179A   26157.84288986  .00004472  00000+0  24932-3 0  9999
2 54880 139.3391 305.8381 0008610 258.2109 101.7732 15.10812873190766
STAR VIBE               
1 55009U 23001A   26157.85550889  .00018222  00000+0  42400-3 0  9991
2 55009  97.3170 222.2796 0006832 141.5854 218.5881 15.42332129190639
MENUT                   
1 55010U 23001B   26157.82637881  .00079025  00000+0  10103-2 0  9990
2 55010  97.3140 225.4415 0006090 146.8210 213.3430 15.58954961190781
BRO-8                   
1 55011U 23001C   26157.83958808  .00038156  00000+0  71823-3 0  9994
2 55011  97.3211 222.8793 0006878 151.2880 208.8750 15.48419921190604
CONNECTA T1.2           
1 55012U 23001D   26157.45629606  .00037754  00000+0  67557-3 0  9996
2 55012  97.3291 227.9620 0006713 135.2108 224.9686 15.49873498190882
BIRKELAND               
1 55015U 23001G   26157.81499444  .00010757  00000+0  27231-3 0  9993
2 55015  97.3344 225.7598 0008103 134.9433 225.2472 15.39894690190755
LYNK TOWER 4            
1 55034U 23001AB  26157.14943860  .00009691  00000+0  30404-3 0  9997
2 55034  97.3199 216.1773 0009251 150.1710 210.0062 15.33204170190137
SKYKRAFT-1              
1 55041U 23001AJ  26157.83563061  .00058269  00000+0  57348-3 0  9993
2 55041  97.3179 234.6788 0004718 114.8890 245.2861 15.65804606191439
CONTINUUM-1             
1 55045U 23001AN  26157.84252104  .00013435  00000+0  46404-3 0  9998
2 55045  97.3339 221.0664 0011019  99.1034 261.1454 15.30003546190677
LYNK TOWER 3            
1 55046U 23001AP  26157.40396020  .00015552  00000+0  44390-3 0  9991
2 55046  97.3202 217.7066 0008827 149.0587 211.1179 15.36081738190254
NUSAT-33 (ALBANIA-2)    
1 55047U 23001AQ  26157.86115819  .00012067  00000+0  44892-3 0  9992
2 55047  97.3071 218.9764 0008196  87.1178 273.1000 15.27617915190730
